{
    "satellites": [
        {
            "name": "starlink362",
            "title": "Starlink-362 (G10-40) (new)",
            "tle": [
                "1 70052C 26042AD  26068.73104167 -.01247500  00000+0 -19750-2 0   680",
                "2 70052  53.1605 195.0370 0000591  61.9700 270.3018 16.04341827    17"
            ],
            "stdMag": 5,
            "noradId": "70052",
            "tleUrl": "http://celestrak.org/NORAD/elements/supplemental/sup-gp.php?FILE=starlink&FORMAT=tle",
            "launchDate": "2026-03-04T10:52:20.000Z",
            "active": true,
            "batch": [
                {
                    "noradId": "70052",
                    "tle": [
                        "1 70052C 26042AD  26068.73104167 -.01247500  00000+0 -19750-2 0   680",
                        "2 70052  53.1605 195.0370 0000591  61.9700 270.3018 16.04341827    17"
                    ]
                },
                {
                    "noradId": "70053",
                    "tle": [
                        "1 70053C 26042AE  26068.73659722 -.01248200  00000+0 -20088-2 0   687",
                        "2 70053  53.1603 195.0144 0000691  61.9184 299.4934 16.04067050    14"
                    ]
                },
                {
                    "noradId": "70051",
                    "tle": [
                        "1 70051C 26042AC  26068.73034722 -.01240500  00000+0 -20344-2 0   682",
                        "2 70051  53.1604 195.0572 0000562  66.2385 254.2029 16.03740872    19"
                    ]
                },
                {
                    "noradId": "70050",
                    "tle": [
                        "1 70050C 26042AB  26068.73034722 -.01250200  00000+0 -19962-2 0   683",
                        "2 70050  53.1600 195.0439 0000534  68.2703 258.4629 16.04201987    13"
                    ]
                },
                {
                    "noradId": "70049",
                    "tle": [
                        "1 70049C 26042AA  26068.73243056 -.01237200  00000+0 -20145-2 0   683",
                        "2 70049  53.1603 195.0436 0000539  64.5330 269.3031 16.03858154    12"
                    ]
                },
                {
                    "noradId": "70048",
                    "tle": [
                        "1 70048C 26042Z   26068.73173611 -.01240200  00000+0 -20473-2 0   689",
                        "2 70048  53.1603 195.0526 0000643  62.5285 264.7317 16.03629825    11"
                    ]
                },
                {
                    "noradId": "70046",
                    "tle": [
                        "1 70046C 26042X   26068.73104167 -.01244800  00000+0 -20681-2 0   688",
                        "2 70046  53.1606 195.0587 0000598  65.9881 256.0545 16.03526190    15"
                    ]
                },
                {
                    "noradId": "70047",
                    "tle": [
                        "1 70047C 26042Y   26068.73451389 -.01245200  00000+0 -20849-2 0   681",
                        "2 70047  53.1603 195.0434 0000612  62.8939 277.8894 16.03395011    15"
                    ]
                },
                {
                    "noradId": "70045",
                    "tle": [
                        "1 70045C 26042W   26068.73034722 -.01244300  00000+0 -20993-2 0   687",
                        "2 70045  53.1605 195.0683 0000651  61.3923 253.8058 16.03264117    19"
                    ]
                },
                {
                    "noradId": "70044",
                    "tle": [
                        "1 70044C 26042V   26068.73243056 -.01244700  00000+0 -21145-2 0   682",
                        "2 70044  53.1603 195.0598 0000538  60.6197 265.3928 16.03147277    11"
                    ]
                },
                {
                    "noradId": "70043",
                    "tle": [
                        "1 70043C 26042U   26068.73173611 -.01245300  00000+0 -21314-2 0   685",
                        "2 70043  53.1605 195.0663 0000553  65.9883 254.6047 16.03021585    18"
                    ]
                },
                {
                    "noradId": "70042",
                    "tle": [
                        "1 70042C 26042T   26068.73104167 -.01247400  00000+0 -21490-2 0   682",
                        "2 70042  53.1605 195.0725 0000615  63.2232 252.0996 16.02911538    14"
                    ]
                },
                {
                    "noradId": "70041",
                    "tle": [
                        "1 70041C 26042S   26068.73034722 -.01245600  00000+0 -21627-2 0   682",
                        "2 70041  53.1603 195.0792 0000635  65.5435 244.2932 16.02776648    11"
                    ]
                },
                {
                    "noradId": "70040",
                    "tle": [
                        "1 70040C 26042R   26068.73381944 -.01249400  00000+0 -21812-2 0   680",
                        "2 70040  53.1603 195.0631 0000612  59.7751 269.1562 16.02685832    12"
                    ]
                },
                {
                    "noradId": "70039",
                    "tle": [
                        "1 70039C 26042Q   26068.73312500 -.01249500  00000+0 -21971-2 0   687",
                        "2 70039  53.1607 195.0693 0000616  62.8686 260.6965 16.02563428    17"
                    ]
                },
                {
                    "noradId": "70038",
                    "tle": [
                        "1 70038C 26042P   26068.73312500 -.01252600  00000+0 -22173-2 0   686",
                        "2 70038  53.1604 195.0720 0000635  64.3877 257.9119 16.02452173    18"
                    ]
                },
                {
                    "noradId": "70036",
                    "tle": [
                        "1 70036C 26042M   26068.73451389 -.01254600  00000+0 -22343-2 0   684",
                        "2 70036  53.1604 195.0671 0000545  62.4785 266.7274 16.02349575    19"
                    ]
                },
                {
                    "noradId": "70037",
                    "tle": [
                        "1 70037C 26042N   26068.72687500 -.01257800  00000+0 -22525-2 0   687",
                        "2 70037  53.1608 195.1092 0000707  63.4101 220.4600 16.02257240    12"
                    ]
                },
                {
                    "noradId": "70035",
                    "tle": [
                        "1 70035C 26042L   26068.73243056 -.01256200  00000+0 -22852-2 0   686",
                        "2 70035  53.1602 195.0864 0000634  63.5459 249.5788 16.01985297    14"
                    ]
                },
                {
                    "noradId": "70034",
                    "tle": [
                        "1 70034C 26042K   26068.73520833 -.01258600  00000+0 -22733-2 0   680",
                        "2 70034  53.1607 195.0689 0000608  62.7232 267.8630 16.02111819    15"
                    ]
                },
                {
                    "noradId": "70033",
                    "tle": [
                        "1 70033C 26042J   26068.73659722 -.01258300  00000+0 -23044-2 0   682",
                        "2 70033  53.1607 195.0672 0000718  60.9319 275.0834 16.01871525    17"
                    ]
                },
                {
                    "noradId": "70032",
                    "tle": [
                        "1 70032C 26042H   26068.73590278 -.01260300  00000+0 -23225-2 0   685",
                        "2 70032  53.1605 195.0732 0000571  65.5401 265.2796 16.01766631    10"
                    ]
                },
                {
                    "noradId": "70031",
                    "tle": [
                        "1 70031C 26042G   26068.73590278 -.01260200  00000+0 -23388-2 0   683",
                        "2 70031  53.1605 195.0759 0000564  67.1904 262.2723 16.01642477    14"
                    ]
                },
                {
                    "noradId": "70030",
                    "tle": [
                        "1 70030C 26042F   26068.73590278 -.01258100  00000+0 -23532-2 0   689",
                        "2 70030  53.1605 195.0790 0000648  61.2739 266.7023 16.01504909    11"
                    ]
                },
                {
                    "noradId": "70029",
                    "tle": [
                        "1 70029C 26042E   26068.72895833 -.01257900  00000+0 -23684-2 0   686",
                        "2 70029  53.1607 195.1180 0000664  64.7809 221.6917 16.01390616    19"
                    ]
                },
                {
                    "noradId": "70027",
                    "tle": [
                        "1 70027C 26042C   26068.73520833 -.01257000  00000+0 -23856-2 0   682",
                        "2 70027  53.1607 195.0883 0000693  61.0550 260.1230 16.01250460    19"
                    ]
                },
                {
                    "noradId": "70028",
                    "tle": [
                        "1 70028C 26042D   26068.73729167 -.01255400  00000+0 -24018-2 0   687",
                        "2 70028  53.1606 195.0807 0000669  61.9500 269.7677 16.01108529    10"
                    ]
                },
                {
                    "noradId": "70026",
                    "tle": [
                        "1 70026C 26042B   26068.73729167 -.01259800  00000+0 -24248-2 0   688",
                        "2 70026  53.1602 195.0831 0000675  63.8390 266.7237 16.01006834    11"
                    ]
                },
                {
                    "noradId": "70025",
                    "tle": [
                        "1 70025C 26042A   26068.73659722 -.01258400  00000+0 -24391-2 0   680",
                        "2 70025  53.1606 195.0894 0000637  60.2543 264.9492 16.00882666    19"
                    ]
                }
            ]
        }
    ],
    "config": {}
}